SKYSAT-C14              
1 45788U 20038BL  23101.58767041  .00045009  00000+0  64207-3 0  9999
2 45788  52.9856 315.1167 0017121 322.5455  37.4361 15.55696178161152
SKYSAT-C16              
1 45789U 20038BM  23101.86481059  .00039862  00000+0  58276-3 0  9992
2 45789  52.9875 313.3796 0009109 338.1578  21.9042 15.55207435161190
SKYSAT-C15              
1 45790U 20038BN  23101.87663410  .00041715  00000+0  59906-3 0  9999
2 45790  52.9854 313.2997 0015501 332.5090  27.5098 15.55581384161192
GAOFEN 9-03             
1 45794U 20039A   23101.92439786  .00011221  00000+0  46906-3 0  9992
2 45794  97.4148 221.5106 0006567 238.4859 261.9596 15.23755094156612
ZHEDA PIXING 3A         
1 45795U 20039B   23101.91331066  .00018190  00000+0  55050-3 0  9996
2 45795  97.4194 225.9026 0010646 229.8496 278.8091 15.34187626156885
HEAD-5                  
1 45796U 20039C   23101.80103718  .00050314  00000+0  10613-2 0  9995
2 45796  97.4138 228.8286 0009908 231.5260 285.6874 15.45015744157083
BEIDOU-3 G3             
1 45807U 20040A   23101.86818025 -.00000355  00000+0  00000+0 0  9997
2 45807   0.8189 321.0213 0005728 333.8436 328.0692  1.00269968 10413
NAVSTAR 79 (USA 304)    
1 45854U 20041A   23099.92574167  .00000007  00000+0  00000+0 0  9992
2 45854  55.7615  74.5510 0030900 187.6001  83.2110  2.00566036 20683
GAOFEN DUOMO (GFDM)     
1 45856U 20042A   23101.81054109  .00001520  00000+0  22383-3 0  9999
2 45856  97.9104 177.5486 0012877 243.3536 116.6342 14.76775848149452
BY70-2                  
1 45857U 20042B   23101.82543640  .00021365  00000+0  23419-2 0  9993
2 45857  97.9274 181.6245 0009978 212.7489 147.3067 14.87718315149661
SHIYAN 6 02 (SY-6 02)   
1 45859U 20043A   23101.85713679  .00000476  00000+0  10022-3 0  9997
2 45859  98.2000 110.0249 0131302 253.1379 105.5370 14.59107428147250
APSTAR 6D               
1 45863U 20045A   23101.00378351 -.00000315  00000+0  00000+0 0  9999
2 45863   0.0445  84.6308 0003666 325.6476 284.0492  1.00269030 10195
KOREASAT 116            
1 45920U 20048A   23101.87059440 -.00000363  00000+0  00000+0 0  9999
2 45920   0.0169 248.5701 0001034 150.1793 230.6858  1.00272909  9987
ZINYUAN-3               
1 45939U 20051A   23101.80400905  .00008365  00000+0  37352-3 0  9995
2 45939  97.4017 181.2904 0011383  70.1187  77.4650 15.21550516150629
LONGXIA YAN 1           
1 45940U 20051B   23101.82862707  .00117821  00000+0  13749-2 0  9992
2 45940  97.4142 197.3723 0004026 329.1469 179.7440 15.61233417151629
TIANQI-10               
1 45941U 20051C   23101.79515079  .00023608  00000+0  63782-3 0  9998
2 45941  97.4156 191.8410 0009061  25.3219 127.7528 15.37705575151250
EXPRESS 103             
1 45985U 20053A   23101.11542295 -.00000279  00000+0  00000+0 0  9994
2 45985   0.0142 232.4814 0000680 124.4837 340.1757  1.00275193  9988
EXPRESS 80              
1 45986U 20053B   23101.22457066 -.00000133  00000+0  00000+0 0  9997
2 45986   0.0395 240.6732 0001829 279.6615 199.6724  1.00269948  9984
GAOFEN 9-04             
1 46025U 20054A   23101.79088883  .00009611  00000+0  40595-3 0  9998
2 46025  97.3698 178.6852 0002255 176.7095 331.8981 15.23459691148996
Q-SAT                   
1 46026U 20054B   23101.75272029  .00023878  00000+0  66567-3 0  9990
2 46026  97.3711 183.7021 0013329  58.6324  40.2610 15.36678437149339
STARLINK-1522           
1 46027U 20055A   23101.48655340  .00028192  00000+0  19020-2 0  9998
2 46027  53.0519 219.5223 0001091  86.1855 273.9259 15.06439040148633
STARLINK-1523           
1 46028U 20055B   23101.50128656  .00030203  00000+0  20350-2 0  9991
2 46028  53.0541 219.4579 0001039 100.0692 260.0415 15.06452562148656
STARLINK-1526           
1 46029U 20055C   23101.49392877  .00031288  00000+0  21085-2 0  9998
2 46029  53.0541 219.4894 0001356  93.5817 266.5327 15.06427657148643
STARLINK-1534           
1 46030U 20055D   23101.51234267  .00045000  00000+0  30149-2 0  9999
2 46030  53.0520 219.4075 0001139  93.5829 266.5290 15.06471474148606
STARLINK-1544           
1 46031U 20055E   23101.71413495  .00026332  00000+0  17773-2 0  9999
2 46031  53.0519 218.4906 0001864  94.3061 265.8141 15.06457359148668
STARLINK-1555           
1 46032U 20055F   23101.74455522  .00030390  00000+0  20472-2 0  9999
2 46032  53.0530 218.3613 0001269  95.1526 264.9608 15.06456022148686
STARLINK-1556           
1 46033U 20055G   23101.79245875  .00034317  00000+0  23064-2 0  9996
2 46033  53.0531 218.1471 0001275  71.5513 288.5615 15.06482247148665
STARLINK-1557           
1 46034U 20055H   23101.79616276  .00033082  00000+0  22254-2 0  9992
2 46034  53.0527 218.1314 0001131  88.6209 271.4909 15.06467039148668
STARLINK-1558           
1 46035U 20055J   23101.73718903  .00033837  00000+0  22758-2 0  9994
2 46035  53.0537 218.3958 0000938  95.4409 264.6687 15.06462531148689
STARLINK-1560           
1 46036U 20055K   23101.72244917  .00033195  00000+0  22335-2 0  9991
2 46036  53.0536 218.4585 0001106  80.3032 279.8081 15.06456593148686
STARLINK-1565           
1 46037U 20055L   23101.51972174  .00024808  00000+0  16778-2 0  9997
2 46037  53.0539 219.3761 0000602  77.2258 282.8798 15.06415982148643
STARLINK-1567           
1 46038U 20055M   23101.46812926  .00029177  00000+0  19674-2 0  9992
2 46038  53.0541 219.6066 0001194  91.1575 268.9550 15.06440524148632
STARLINK-1569           
1 46039U 20055N   23101.47550183  .00028601  00000+0  19298-2 0  9991
2 46039  53.0539 219.5755 0001104  69.3556 290.7551 15.06427312148635
STARLINK-1576           
1 46040U 20055P   23101.50494715  .00032892  00000+0  22112-2 0  9991
2 46040  53.0544 219.4417 0001033  82.2527 277.8579 15.06493417148602
STARLINK-1580           
1 46041U 20055Q   23101.71508992  .00034231  00000+0  23021-2 0  9997
2 46041  53.0531 218.5831 0001239  80.0714 280.0415 15.06459675148648
STARLINK-1581           
1 46042U 20055R   23101.49022913  .00029225  00000+0  19703-2 0  9996
2 46042  53.0523 219.5058 0001223  88.8424 271.2705 15.06445941148600
STARLINK-1582           
1 46043U 20055S   23101.48285556  .00034102  00000+0  22948-2 0  9995
2 46043  53.0544 219.5386 0001418  99.4935 260.6215 15.06439549148637
STARLINK-1584           
1 46044U 20055T   23101.69570321  .00029364  00000+0  19799-2 0  9990
2 46044  53.0534 218.5720 0001585  63.2281 296.8870 15.06439491148674
STARLINK-1591           
1 46045U 20055U   23101.70769082  .00034596  00000+0  23255-2 0  9992
2 46045  53.0516 218.5306 0001125  93.9820 266.1298 15.06473117148659
STARLINK-1524           
1 46047U 20055W   23101.79338048  .00028056  00000+0  18912-2 0  9995
2 46047  53.0529 208.1434 0001411  74.2098 285.9046 15.06473400148823
STARLINK-1527           
1 46048U 20055X   23101.78969956  .00030399  00000+0  20469-2 0  9996
2 46048  53.0523 208.1596 0001027  83.3410 276.7696 15.06472277148807
STARLINK-1530           
1 46049U 20055Y   23101.52063700  .00033581  00000+0  22590-2 0  9994
2 46049  53.0531 209.3674 0001241  88.0283 272.0848 15.06459037148790
STARLINK-1540           
1 46051U 20055AA  23101.49116495  .00031886  00000+0  21477-2 0  9992
2 46051  53.0516 209.5023 0001081  79.1521 280.9589 15.06436855148797
STARLINK-1541           
1 46052U 20055AB  23101.47642891  .00028850  00000+0  19442-2 0  9991
2 46052  53.0550 209.5653 0001381  71.6128 288.5011 15.06469074148757
STARLINK-1543           
1 46053U 20055AC  23101.48010062  .00030497  00000+0  20551-2 0  9995
2 46053  53.0514 209.5517 0001182 103.7042 256.4078 15.06442119148789
STARLINK-1548           
1 46054U 20055AD  23101.48747021  .00032398  00000+0  21808-2 0  9996
2 46054  53.0512 209.5185 0001502  67.9589 292.1560 15.06453008148784
STARLINK-1554           
1 46055U 20055AE  23101.47273533  .00029540  00000+0  19916-2 0  9990
2 46055  53.0541 209.5840 0001056  74.7247 285.3858 15.06440060148245
STARLINK-1561           
1 46056U 20055AF  23101.91667824  .01299336  00000+0  57064-1 0  9998
2 46056  53.0497 207.3724 0001280  72.5685 170.1805 15.18737792  1306
STARLINK-1564           
1 46058U 20055AH  23101.70494020  .00024731  00000+0  16713-2 0  9994
2 46058  53.0530 208.5422 0001472  80.3119 279.8036 15.06445577148811
STARLINK-1570           
1 46059U 20055AJ  23101.51326988  .00033807  00000+0  22734-2 0  9995
2 46059  53.0534 209.3978 0001346  94.9733 265.1410 15.06468807148741
STARLINK-1572           
1 46060U 20055AK  23101.77495511  .00033962  00000+0  22827-2 0  9999
2 46060  53.0538 208.2276 0001238  90.3942 269.7188 15.06484580148791
STARLINK-1573           
1 46061U 20055AL  23101.50222533  .00033995  00000+0  22874-2 0  9991
2 46061  53.0521 209.4536 0001208  89.1684 270.9443 15.06444466148788
STARLINK-1574           
1 46062U 20055AM  23101.46904869  .00030226  00000+0  20374-2 0  9993
2 46062  53.0538 209.6013 0001104  82.5110 277.6005 15.06436473148243
STARLINK-1577           
1 46063U 20055AN  23101.46535464  .00020758  00000+0  14070-2 0  9990
2 46063  53.0533 209.6174 0001565  74.5582 285.5579 15.06435605148770
STARLINK-1583           
1 46064U 20055AP  23101.49852437  .00027560  00000+0  18592-2 0  9997
2 46064  53.0527 209.4697 0000770  80.5920 279.5156 15.06452845148782
STARLINK-1515           
1 46065U 20055AQ  23101.49206447  .00024607  00000+0  16633-2 0  9995
2 46065  53.0540 189.4954 0001213 101.6670 258.4455 15.06439891149045
STARLINK-1525           
1 46066U 20055AR  23101.62937910  .00030928  00000+0  20828-2 0  9991
2 46066  53.0509 188.8805 0001387  94.2317 265.8830 15.06459099149070
STARLINK-1529           
1 46067U 20055AS  23101.49942869  .00031189  00000+0  21008-2 0  9997
2 46067  53.0527 189.4506 0001142  95.8721 264.2398 15.06446965149060
STARLINK-1532           
1 46068U 20055AT  23101.64317697  .00024319  00000+0  16437-2 0  9997
2 46068  53.0517 188.8096 0001562  87.1947 272.9221 15.06449590149087
